*******************************************************************************
Ephemeris / WWW_USER Mon Mar 24 09:03:02 2025 Pasadena, USA      / Horizons    
*******************************************************************************
Target body name: (2017 UX51)                     {source: JPL#22}
Center body name: Earth (399)                     {source: DE441}
Center-site name: Mauna Kea
*******************************************************************************
Start time      : A.D. 2018-Dec-31 04:03:00.0000 UT      
Stop  time      : A.D. 2018-Dec-31 16:46:00.0000 UT      
Step-size       : 1 minutes
*******************************************************************************
Target pole/equ : undefined
Target radii    : undefined                                                    
Center geodetic : 204.5278, 19.8260847, 4.21024   {E-lon(deg),Lat(deg),Alt(km)}
Center cylindric: 204.5278, 6006.35451, 2151.0229 {E-lon(deg),Dxy(km),Dz(km)}
Center pole/equ : ITRF93                          {East-longitude positive}
Center radii    : 6378.137, 6378.137, 6356.752 km {Equator_a, b, pole_c}       
Target primary  : Sun
Vis. interferer : MOON (R_eq= 1737.400) km        {source: DE441}
Rel. light bend : Sun                             {source: DE441}
Rel. lght bnd GM: 1.3271E+11 km^3/s^2                                          
Small-body perts: Yes                             {source: SB441-N16}
Atmos refraction: NO (AIRLESS)
RA format       : HMS
Time format     : CAL 
Calendar mode   : Mixed Julian/Gregorian
RTS-only print  : NO       
EOP file        : eop.250321.p250617                                           
EOP coverage    : DATA-BASED 1962-JAN-20 TO 2025-MAR-21. PREDICTS-> 2025-JUN-16
Units conversion: 1 au= 149597870.700 km, c= 299792.458 km/s, 1 day= 86400.0 s 
Table cut-offs 1: Elevation (-90.0deg=NO ),Airmass (>38.000=NO), Daylight (YES)
Table cut-offs 2: Solar elongation (  0.0,180.0=NO ),Local Hour Angle( 0.0=NO )
Table cut-offs 3: RA/DEC angular rate (     0.0=NO )                           
*******************************************************************************
Initial IAU76/J2000 heliocentric ecliptic osculating elements (au, days, deg.):
  EPOCH=  2458433.5 ! 2018-Nov-11.00 (TDB)         Residual RMS= .12444        
   EC= .7474905367293002   QR= 7.612253692784782   TP= 2459819.8104231078      
   OM= 217.7952286585891   W=  255.0338939179157   IN= 90.52400691057457       
  Equivalent ICRF heliocentric cartesian coordinates (au, au/d):
   X= 8.209785034050050E+00  Y= 6.297741083246843E+00  Z= 1.446459094674425E+00
  VX=-3.080259200599625E-03 VY=-2.498125597102637E-05 VZ=-6.110805734701701E-03
Asteroid physical parameters (km, seconds, rotational period in hours):        
   GM= n.a.                RAD= n.a.               ROTPER= n.a.                
   H= 11.                  G= .150                 B-V= n.a.                   
                           ALBEDO= n.a.            STYP= n.a.                  
*******************************************************************************
 Date__(UT)__HR:MN     R.A._________(ICRF)_________DEC
******************************************************
$$SOE
 2018-Dec-31 14:18  m  02 13 21.795893 +04 22 12.92187
 2018-Dec-31 14:19  m  02 13 21.790621 +04 22 12.83518
 2018-Dec-31 14:20  m  02 13 21.785350 +04 22 12.74850
 2018-Dec-31 14:21  m  02 13 21.780079 +04 22 12.66182
 2018-Dec-31 14:22  m  02 13 21.774810 +04 22 12.57514
 2018-Dec-31 14:23  m  02 13 21.769542 +04 22 12.48846
 2018-Dec-31 14:24  m  02 13 21.764275 +04 22 12.40179
 2018-Dec-31 14:25  m  02 13 21.759009 +04 22 12.31512
 2018-Dec-31 14:26  m  02 13 21.753744 +04 22 12.22845
 2018-Dec-31 14:27  m  02 13 21.748480 +04 22 12.14178
 2018-Dec-31 14:28  m  02 13 21.743217 +04 22 12.05511
 2018-Dec-31 14:29  m  02 13 21.737956 +04 22 11.96845
 2018-Dec-31 14:30  m  02 13 21.732695 +04 22 11.88178
 2018-Dec-31 14:31  m  02 13 21.727435 +04 22 11.79512
 2018-Dec-31 14:32  m  02 13 21.722176 +04 22 11.70847
 2018-Dec-31 14:33  m  02 13 21.716918 +04 22 11.62181
 2018-Dec-31 14:34  m  02 13 21.711662 +04 22 11.53516
 2018-Dec-31 14:35  m  02 13 21.706406 +04 22 11.44850
 2018-Dec-31 14:36  m  02 13 21.701151 +04 22 11.36185
 2018-Dec-31 14:37  m  02 13 21.695898 +04 22 11.27521
 2018-Dec-31 14:38  m  02 13 21.690645 +04 22 11.18856
 2018-Dec-31 14:39  m  02 13 21.685393 +04 22 11.10192
 2018-Dec-31 14:40  m  02 13 21.680142 +04 22 11.01528
 2018-Dec-31 14:41  m  02 13 21.674893 +04 22 10.92864
 2018-Dec-31 14:42  m  02 13 21.669644 +04 22 10.84200
 2018-Dec-31 14:43  m  02 13 21.664396 +04 22 10.75536
 2018-Dec-31 14:44  m  02 13 21.659150 +04 22 10.66873
 2018-Dec-31 14:45  m  02 13 21.653904 +04 22 10.58210
 2018-Dec-31 14:46  m  02 13 21.648659 +04 22 10.49547
 2018-Dec-31 14:47  m  02 13 21.643415 +04 22 10.40884
 2018-Dec-31 14:48  m  02 13 21.638173 +04 22 10.32222
 2018-Dec-31 14:49  m  02 13 21.632931 +04 22 10.23560
 2018-Dec-31 14:50  m  02 13 21.627690 +04 22 10.14898
 2018-Dec-31 14:51  m  02 13 21.622450 +04 22 10.06236
 2018-Dec-31 14:52  m  02 13 21.617211 +04 22 09.97574
 2018-Dec-31 14:53  m  02 13 21.611973 +04 22 09.88913
 2018-Dec-31 14:54  m  02 13 21.606736 +04 22 09.80252
 2018-Dec-31 14:55  m  02 13 21.601500 +04 22 09.71591
 2018-Dec-31 14:56  m  02 13 21.596265 +04 22 09.62930
 2018-Dec-31 14:57  m  02 13 21.591031 +04 22 09.54269
 2018-Dec-31 14:58  m  02 13 21.585797 +04 22 09.45609
 2018-Dec-31 14:59  m  02 13 21.580565 +04 22 09.36949
 2018-Dec-31 15:00  m  02 13 21.575334 +04 22 09.28289
 2018-Dec-31 15:01  m  02 13 21.570103 +04 22 09.19630
 2018-Dec-31 15:02  m  02 13 21.564874 +04 22 09.10970
 2018-Dec-31 15:03  m  02 13 21.559645 +04 22 09.02311
 2018-Dec-31 15:04  m  02 13 21.554418 +04 22 08.93652
 2018-Dec-31 15:05  m  02 13 21.549191 +04 22 08.84993
 2018-Dec-31 15:06  m  02 13 21.543965 +04 22 08.76335
 2018-Dec-31 15:07  m  02 13 21.538740 +04 22 08.67676
 2018-Dec-31 15:08  m  02 13 21.533516 +04 22 08.59018
 2018-Dec-31 15:09  m  02 13 21.528293 +04 22 08.50360
 2018-Dec-31 15:10  m  02 13 21.523071 +04 22 08.41703
 2018-Dec-31 15:11  m  02 13 21.517850 +04 22 08.33045
 2018-Dec-31 15:12  m  02 13 21.512629 +04 22 08.24388
 2018-Dec-31 15:13  m  02 13 21.507410 +04 22 08.15731
 2018-Dec-31 15:14  m  02 13 21.502191 +04 22 08.07074
 2018-Dec-31 15:15  m  02 13 21.496973 +04 22 07.98418
 2018-Dec-31 15:16  m  02 13 21.491757 +04 22 07.89761
 2018-Dec-31 15:17  m  02 13 21.486541 +04 22 07.81105
 2018-Dec-31 15:18  m  02 13 21.481325 +04 22 07.72449
 2018-Dec-31 15:19  m  02 13 21.476111 +04 22 07.63794
 2018-Dec-31 15:20  m  02 13 21.470898 +04 22 07.55138
 2018-Dec-31 15:21  m  02 13 21.465685 +04 22 07.46483
 2018-Dec-31 15:22  m  02 13 21.460474 +04 22 07.37828
 2018-Dec-31 15:23  m  02 13 21.455263 +04 22 07.29174
 2018-Dec-31 15:24  m  02 13 21.450053 +04 22 07.20519
 2018-Dec-31 15:25  m  02 13 21.444844 +04 22 07.11865
 2018-Dec-31 15:26  m  02 13 21.439636 +04 22 07.03211
 2018-Dec-31 15:27  m  02 13 21.434428 +04 22 06.94557
 2018-Dec-31 15:28  m  02 13 21.429222 +04 22 06.85903
 2018-Dec-31 15:29  m  02 13 21.424016 +04 22 06.77250
 2018-Dec-31 15:30  m  02 13 21.418811 +04 22 06.68597
 2018-Dec-31 15:31  m  02 13 21.413607 +04 22 06.59944
 2018-Dec-31 15:32  m  02 13 21.408403 +04 22 06.51291
 2018-Dec-31 15:33  m  02 13 21.403201 +04 22 06.42639
 2018-Dec-31 15:34  m  02 13 21.397999 +04 22 06.33986
 2018-Dec-31 15:35  m  02 13 21.392799 +04 22 06.25334
 2018-Dec-31 15:36  m  02 13 21.387599 +04 22 06.16683
 2018-Dec-31 15:37  m  02 13 21.382399 +04 22 06.08031
 2018-Dec-31 15:38 Am  02 13 21.377201 +04 22 05.99380
 2018-Dec-31 15:39 Am  02 13 21.372003 +04 22 05.90729
 2018-Dec-31 15:40 Am  02 13 21.366806 +04 22 05.82078
 2018-Dec-31 15:41 Am  02 13 21.361610 +04 22 05.73427
 2018-Dec-31 15:42 Am  02 13 21.356415 +04 22 05.64777
 2018-Dec-31 15:43 Am  02 13 21.351221 +04 22 05.56127
 2018-Dec-31 15:44 Am  02 13 21.346027 +04 22 05.47477
 2018-Dec-31 15:45 Am  02 13 21.340834 +04 22 05.38827
 2018-Dec-31 15:46 Am  02 13 21.335642 +04 22 05.30178
 2018-Dec-31 15:47 Am  02 13 21.330450 +04 22 05.21528
 2018-Dec-31 15:48 Am  02 13 21.325260 +04 22 05.12880
 2018-Dec-31 15:49 Am  02 13 21.320070 +04 22 05.04231
 2018-Dec-31 15:50 Am  02 13 21.314880 +04 22 04.95582
 2018-Dec-31 15:51 Am  02 13 21.309692 +04 22 04.86934
 2018-Dec-31 15:52 Am  02 13 21.304504 +04 22 04.78286
 2018-Dec-31 15:53 Am  02 13 21.299317 +04 22 04.69638
 2018-Dec-31 15:54 Am  02 13 21.294131 +04 22 04.60991
 2018-Dec-31 15:55 Am  02 13 21.288946 +04 22 04.52343
 2018-Dec-31 15:56 Am  02 13 21.283761 +04 22 04.43696
 2018-Dec-31 15:57 Am  02 13 21.278577 +04 22 04.35049
 2018-Dec-31 15:58 Am  02 13 21.273394 +04 22 04.26403
 2018-Dec-31 15:59 Am  02 13 21.268211 +04 22 04.17756
 2018-Dec-31 16:00 Am  02 13 21.263029 +04 22 04.09110
 2018-Dec-31 16:01 Am  02 13 21.257848 +04 22 04.00464
 2018-Dec-31 16:02 Am  02 13 21.252668 +04 22 03.91819
 2018-Dec-31 16:03 Am  02 13 21.247488 +04 22 03.83173
 2018-Dec-31 16:04 Am  02 13 21.242309 +04 22 03.74528
 2018-Dec-31 16:05 Am  02 13 21.237130 +04 22 03.65883
 2018-Dec-31 16:06 Nm  02 13 21.231953 +04 22 03.57238
 2018-Dec-31 16:07 Nm  02 13 21.226776 +04 22 03.48594
 2018-Dec-31 16:08 Nm  02 13 21.221599 +04 22 03.39950
 2018-Dec-31 16:09 Nm  02 13 21.216424 +04 22 03.31306
 2018-Dec-31 16:10 Nm  02 13 21.211249 +04 22 03.22662
 2018-Dec-31 16:11 Nm  02 13 21.206074 +04 22 03.14018
 2018-Dec-31 16:12 Nm  02 13 21.200901 +04 22 03.05375
 2018-Dec-31 16:13 Nm  02 13 21.195727 +04 22 02.96732
 2018-Dec-31 16:14 Nm  02 13 21.190555 +04 22 02.88089
 2018-Dec-31 16:15 Nm  02 13 21.185383 +04 22 02.79447
 2018-Dec-31 16:16 Nm  02 13 21.180212 +04 22 02.70804
 2018-Dec-31 16:17 Nm  02 13 21.175042 +04 22 02.62162
 2018-Dec-31 16:18 Nm  02 13 21.169872 +04 22 02.53520
 2018-Dec-31 16:19 Nm  02 13 21.164703 +04 22 02.44879
 2018-Dec-31 16:20 Nm  02 13 21.159534 +04 22 02.36237
